NORAD_CAT_ID,OBJECT_NAME,OBJECT_TYPE,EPOCH,MEAN_MOTION,ECCENTRICITY,INCLINATION,RA_OF_ASC_NODE,ARG_OF_PERICENTER,MEAN_ANOMALY,BSTAR,MEAN_MOTION_DOT,MEAN_MOTION_DDOT,TLE_LINE0,TLE_LINE1,TLE_LINE2,SEMIMAJOR_AXIS,PERIOD,APOGEE,PERIGEE,DECAYED
52643.0,STARLINK-3963,PAYLOAD,2024-05-23 11:12:30,15.08841537,0.0001016,53.2157,320.4994,130.7582,229.3498,0.00021268,3.099e-05,0.0,0 STARLINK-3963,1 52643U 22052AX  24144.46701658  .00003099  00000-0  21268-3 0  9996,2 52643  53.2157 320.4994 0001016 130.7582 229.3498 15.08841537112216,6917.876,95.437,540.444,539.038,0.0
52643.0,STARLINK-3963,PAYLOAD,2024-05-23 20:44:48,15.08848315,9.95e-05,53.2164,318.7161,128.3425,231.7657,0.00019749,2.857e-05,0.0,0 STARLINK-3963,1 52643U 22052AX  24144.86445359  .00002857  00000-0  19749-3 0  9995,2 52643  53.2164 318.7161 0000995 128.3425 231.7657 15.08848315112275,6917.855,95.437,540.408,539.032,0.0
52643.0,STARLINK-3963,PAYLOAD,2024-05-24 19:00:12,15.08845012,8.17e-05,53.2168,314.5527,114.4995,245.6082,0.00016831,2.392e-05,0.0,0 STARLINK-3963,1 52643U 22052AX  24145.79181439  .00002392  00000-0  16831-3 0  9997,2 52643  53.2168 314.5527 0000817 114.4995 245.6082 15.08845012112794,6917.865,95.437,540.295,539.165,0.0
52643.0,STARLINK-3963,PAYLOAD,2024-05-24 20:35:35,15.08844756,8.15e-05,53.2168,314.2553,112.8017,247.3062,0.00015384,2.162e-05,0.0,0 STARLINK-3963,1 52643U 22052AX  24145.85805427  .00002162  00000-0  15384-3 0  9991,2 52643  53.2168 314.2553 0000815 112.8017 247.3062 15.08844756112426,6917.866,95.437,540.295,539.167,0.0
52643.0,STARLINK-3963,PAYLOAD,2024-05-25 10:54:04,15.08838083,7.97e-05,53.2167,311.5815,90.0636,270.0448,2.8902e-05,1.72e-06,0.0,0 STARLINK-3963,1 52643U 22052AX  24146.45421875  .00000172  00000-0  28902-4 0  9999,2 52643  53.2167 311.5815 0000797  90.0636 270.0448 15.08838083112897,6917.886,95.438,540.303,539.2,0.0
52643.0,STARLINK-3963,PAYLOAD,2024-05-26 13:55:38,15.08834662,7.84e-05,53.2171,306.5295,79.1106,280.9974,-3.5436e-05,-8.51e-06,0.0,0 STARLINK-3963,1 52643U 22052AX  24147.58030700 -.00000851  00000-0 -35436-4 0  9993,2 52643  53.2171 306.5295 0000784  79.1106 280.9974 15.08834662112684,6917.897,95.438,540.304,539.219,0.0
52643.0,STARLINK-3963,PAYLOAD,2024-05-26 17:06:24,15.0883912,9.35e-05,53.2175,305.9322,91.6084,268.5015,1.1533e-05,-1.04e-06,0.0,0 STARLINK-3963,1 52643U 22052AX  24147.71278304 -.00000104  00000-0  11533-4 0  9994,2 52643  53.2175 305.9322 0000935  91.6084 268.5015 15.08839120113081,6917.883,95.438,540.395,539.101,0.0
52643.0,STARLINK-3963,PAYLOAD,2024-05-27 13:46:24,15.0883941,9.91e-05,53.2185,302.0669,83.8024,276.3081,0.00016143,2.282e-05,0.0,0 STARLINK-3963,1 52643U 22052AX  24148.57390019  .00002282  00000-0  16143-3 0  9996,2 52643  53.2185 302.0669 0000991  83.8024 276.3081 15.08839410112837,6917.882,95.438,540.433,539.062,0.0
52643.0,STARLINK-3963,PAYLOAD,2024-05-27 16:57:11,15.08839516,8.75e-05,53.2184,301.4707,85.2057,274.9035,0.0001509,2.115e-05,0.0,0 STARLINK-3963,1 52643U 22052AX  24148.70638097  .00002115  00000-0  15090-3 0  9997,2 52643  53.2184 301.4707 0000875  85.2057 274.9035 15.08839516112857,6917.882,95.438,540.352,539.142,0.0
52643.0,STARLINK-3963,PAYLOAD,2024-05-28 10:26:25,15.0884168,0.000101,53.2186,298.1986,113.2249,246.885,8.4001e-05,1.049e-05,0.0,0 STARLINK-3963,1 52643U 22052AX  24149.43502049  .00001049  00000-0  84001-4 0  9999,2 52643  53.2186 298.1986 0001010 113.2249 246.8850 15.08841680113340,6917.875,95.437,540.439,539.042,0.0
52643.0,STARLINK-3963,PAYLOAD,2024-05-28 13:37:12,15.0883894,9.43e-05,53.2183,297.6032,111.7903,248.3189,3.8689e-05,3.28e-06,0.0,0 STARLINK-3963,1 52643U 22052AX  24149.56750305  .00000328  00000-0  38689-4 0  9993,2 52643  53.2183 297.6032 0000943 111.7903 248.3189 15.08838940112983,6917.884,95.438,540.401,539.096,0.0
52643.0,STARLINK-3963,PAYLOAD,2024-05-28 16:47:58,15.08837774,9.1e-05,53.2185,297.0089,107.7846,252.3246,3.2564e-05,2.31e-06,0.0,0 STARLINK-3963,1 52643U 22052AX  24149.69998381  .00000231  00000-0  32564-4 0  9994,2 52643  53.2185 297.0089 0000910 107.7846 252.3246 15.08837774113003,6917.887,95.438,540.382,539.123,0.0
52643.0,STARLINK-3963,PAYLOAD,2024-05-29 10:17:13,15.0884081,9.32e-05,53.2184,293.7419,118.7171,241.3915,-2.3928e-05,-6.69e-06,0.0,0 STARLINK-3963,1 52643U 22052AX  24150.42862424 -.00000669  00000-0 -23928-4 0  9996,2 52643  53.2184 293.7419 0000932 118.7171 241.3915 15.08840810113498,6917.878,95.438,540.388,539.098,0.0
52643.0,STARLINK-3963,PAYLOAD,2024-05-29 13:27:59,15.08839594,8.6e-05,53.2183,293.148,107.6528,252.4558,-1.6927e-05,-5.57e-06,0.0,0 STARLINK-3963,1 52643U 22052AX  24150.56110530 -.00000557  00000-0 -16927-4 0  9992,2 52643  53.2183 293.1480 0000860 107.6528 252.4558 15.08839594113136,6917.882,95.438,540.342,539.152,0.0
52643.0,STARLINK-3963,PAYLOAD,2024-05-29 15:03:22,15.08840747,8.54e-05,53.218,292.8504,110.8073,249.3011,-2.9982e-05,-7.65e-06,0.0,0 STARLINK-3963,1 52643U 22052AX  24150.62734477 -.00000765  00000-0 -29982-4 0  9997,2 52643  53.2180 292.8504 0000854 110.8073 249.3011 15.08840747113142,6917.878,95.438,540.334,539.152,0.0
52643.0,STARLINK-3963,PAYLOAD,2024-05-30 14:54:09,15.08839878,8.6e-05,53.2177,288.3873,100.3929,259.716,0.00011773,1.586e-05,0.0,0 STARLINK-3963,1 52643U 22052AX  24151.62094307  .00001586  00000-0  11773-3 0  9997,2 52643  53.2177 288.3873 0000860 100.3929 259.7160 15.08839878113297,6917.881,95.438,540.341,539.151,0.0
52643.0,STARLINK-3963,PAYLOAD,2024-05-30 16:29:32,15.0884184,8.37e-05,53.2176,288.0897,96.495,263.6137,0.00013221,1.817e-05,0.0,0 STARLINK-3963,1 52643U 22052AX  24151.68718170  .00001817  00000-0  13221-3 0  9991,2 52643  53.2176 288.0897 0000837  96.4950 263.6137 15.08841840113685,6917.875,95.437,540.319,539.161,0.0
52643.0,STARLINK-3963,PAYLOAD,2024-05-31 14:44:56,15.08843594,8.84e-05,53.218,283.9262,85.4547,274.6546,0.0001356,1.871e-05,0.0,0 STARLINK-3963,1 52643U 22052AX  24152.61454076  .00001871  00000-0  13560-3 0  9993,2 52643  53.2180 283.9262 0000884  85.4547 274.6546 15.08843594113440,6917.869,95.437,540.346,539.123,0.0
52643.0,STARLINK-3963,PAYLOAD,2024-05-31 16:20:19,15.0884448,8.57e-05,53.2176,283.6288,76.2843,283.8245,0.00014329,1.994e-05,0.0,0 STARLINK-3963,1 52643U 22052AX  24152.68078024  .00001994  00000-0  14329-3 0  9995,2 52643  53.2176 283.6288 0000857  76.2843 283.8245 15.08844480113451,6917.867,95.437,540.325,539.139,0.0
52643.0,STARLINK-3963,PAYLOAD,2024-06-01 13:00:21,15.08833054,0.0001241,53.2186,279.7655,64.7298,295.3822,3.2073e-05,2.23e-06,0.0,0 STARLINK-3963,1 52643U 22052AX  24153.54191302  .00000223  00000-0  32073-4 0  9997,2 52643  53.2186 279.7655 0001241  64.7298 295.3822 15.08833054113960,6917.902,95.438,540.625,538.908,0.0
52643.0,STARLINK-3963,PAYLOAD,2024-06-01 14:35:44,15.0883163,9.28e-05,53.2177,279.4672,79.4323,280.6774,3.6248e-05,2.89e-06,0.0,0 STARLINK-3963,1 52643U 22052AX  24153.60815247  .00000289  00000-0  36248-4 0  9995,2 52643  53.2177 279.4672 0000928  79.4323 280.6774 15.08831630113599,6917.906,95.438,540.413,539.129,0.0
52643.0,STARLINK-3963,PAYLOAD,2024-06-02 01:43:25,15.08844671,0.0001078,53.2186,277.3867,74.2724,285.8387,-7.4459e-06,-4.06e-06,0.0,0 STARLINK-3963,1 52643U 22052AX  24154.07182618 -.00000406  00000-0 -74459-5 0  9996,2 52643  53.2186 277.3867 0001078  74.2724 285.8387 15.08844671114044,6917.866,95.437,540.477,538.985,0.0
52643.0,STARLINK-3963,PAYLOAD,2024-06-02 14:26:31,15.08836811,9.97e-05,53.2187,275.008,73.8327,286.2775,0.00012383,1.683e-05,0.0,0 STARLINK-3963,1 52643U 22052AX  24154.60174849  .00001683  00000-0  12383-3 0  9994,2 52643  53.2187 275.0080 0000997  73.8327 286.2775 15.08836811113749,6917.89,95.438,540.445,539.065,0.0
52643.0,STARLINK-3963,PAYLOAD,2024-06-02 17:37:16,15.08846516,0.0001049,53.2189,274.4112,83.6952,276.4159,9.7416e-05,1.263e-05,0.0,0 STARLINK-3963,1 52643U 22052AX  24154.73422289  .00001263  00000-0  97416-4 0  9997,2 52643  53.2189 274.4112 0001049  83.6952 276.4159 15.08846516113764,6917.86,95.437,540.451,539.0,0.0
52643.0,STARLINK-3963,PAYLOAD,2024-06-03 01:34:11,15.08852904,0.0001047,53.2191,272.9253,88.5683,271.5429,0.00014065,1.952e-05,0.0,0 STARLINK-3963,1 52643U 22052AX  24155.06541631  .00001952  00000-0  14065-3 0  9990,2 52643  53.2191 272.9253 0001047  88.5683 271.5429 15.08852904114191,6917.841,95.437,540.43,538.982,0.0
52643.0,STARLINK-3963,PAYLOAD,2024-06-03 11:06:31,15.08837809,0.0001063,53.2178,271.1401,97.3084,262.8029,0.00011644,1.566e-05,0.0,0 STARLINK-3963,1 52643U 22052AX  24155.46286899  .00001566  00000-0  11644-3 0  9997,2 52643  53.2178 271.1401 0001063  97.3084 262.8029 15.08837809114256,6917.887,95.438,540.487,539.017,0.0
52643.0,STARLINK-3963,PAYLOAD,2024-06-03 14:17:17,15.08842798,8.82e-05,53.219,270.5459,86.8372,273.2721,0.00013865,1.92e-05,0.0,0 STARLINK-3963,1 52643U 22052AX  24155.59534595  .00001920  00000-0  13865-3 0  9991,2 52643  53.2190 270.5459 0000882  86.8372 273.2721 15.08842798113894,6917.872,95.437,540.347,539.127,0.0
52643.0,STARLINK-3963,PAYLOAD,2024-06-04 14:08:04,15.08845074,0.000107,53.216,266.0851,87.789,272.3224,7.221e-05,8.62e-06,0.0,0 STARLINK-3963,1 52643U 22052AX  24156.58894546  .00000862  00000-0  72210-4 0  9990,2 52643  53.2160 266.0851 0001070  87.7890 272.3224 15.08845074114048,6917.865,95.437,540.47,538.99,0.0
52643.0,STARLINK-3963,PAYLOAD,2024-06-05 12:23:29,15.08830605,0.0001779,53.2165,261.9192,129.5172,230.5978,-3.8313e-05,-8.98e-06,0.0,0 STARLINK-3963,1 52643U 22052AX  24157.51631520 -.00000898  00000-0 -38313-4 0  9992,2 52643  53.2165 261.9192 0001779 129.5172 230.5978 15.08830605114562,6917.909,95.438,541.005,538.543,0.0
52643.0,STARLINK-3963,PAYLOAD,2024-06-05 13:58:53,15.0882673,9.65e-05,53.2155,261.6245,100.8348,259.2752,-8.1622e-06,-4.18e-06,0.0,0 STARLINK-3963,1 52643U 22052AX  24157.58255804 -.00000418  00000-0 -81622-5 0  9996,2 52643  53.2155 261.6245 0000965 100.8348 259.2752 15.08826730114191,6917.921,95.438,540.454,539.118,0.0
